NORAD_CAT_ID,OBJECT_NAME,OBJECT_TYPE,EPOCH,MEAN_MOTION,ECCENTRICITY,INCLINATION,RA_OF_ASC_NODE,ARG_OF_PERICENTER,MEAN_ANOMALY,BSTAR,MEAN_MOTION_DOT,MEAN_MOTION_DDOT,TLE_LINE0,TLE_LINE1,TLE_LINE2,SEMIMAJOR_AXIS,PERIOD,APOGEE,PERIGEE,DECAYED
49444.0,STARLINK-3126,PAYLOAD,2022-04-04 22:00:00,15.08843365,0.0002025,53.2176,170.0605,34.2403,304.0487,-0.00033568,-5.627e-05,0.0,0 STARLINK-3126,1 49444U 21104AN  22094.91667824 -.00005627  00000-0 -33568-3 0  9993,2 49444  53.2176 170.0605 0002025  34.2403 304.0487 15.08843365  3568,6917.87,95.437,541.136,538.3340000000002,0.0
49444.0,STARLINK-3126,PAYLOAD,2022-04-05 14:00:01,15.08813876,0.0002262,53.2174,167.0692,36.1919,325.3643,0.0028292,0.00044995,0.0,0 STARLINK-3126,1 49444U 21104AN  22095.58335648  .00044995  00000-0  28292-2 0  9999,2 49444  53.2174 167.0692 0002262  36.1919 325.3643 15.08813876  3579,6917.96,95.439,541.39,538.26,0.0
49444.0,STARLINK-3126,PAYLOAD,2022-04-05 16:00:00,15.08816033,0.0002263,53.2171,166.6951,34.3625,60.0259,0.0032323,0.00051497,0.0,0 STARLINK-3126,1 49444U 21104AN  22095.66667824  .00051497  00000-0  32323-2 0  9997,2 49444  53.2171 166.6951 0002263  34.3625  60.0259 15.08816033 23503,6917.954000000002,95.439,541.384,538.253,0.0
49444.0,STARLINK-3126,PAYLOAD,2022-04-05 22:00:00,15.08857911,0.0002121,53.2173,165.5713,36.1141,336.96,-0.0036249,-0.00057548,0.0,0 STARLINK-3126,1 49444U 21104AN  22095.91667824 -.00057548  00000-0 -36249-2 0  9991,2 49444  53.2173 165.5713 0002121  36.1141 336.9600 15.08857911  3575,6917.826,95.436,541.158,538.2230000000002,0.0
49444.0,STARLINK-3126,PAYLOAD,2022-04-06 06:00:02,15.08830798,0.0002068,53.2174,164.0749,37.7765,346.9472,0.00015142,2.122e-05,0.0,0 STARLINK-3126,1 49444U 21104AN  22096.25002315  .00002122  00000-0  15142-3 0  9993,2 49444  53.2174 164.0749 0002068  37.7765 346.9472 15.08830798 23583,6917.909000000002,95.438,541.2040000000002,538.3430000000002,0.0
49444.0,STARLINK-3126,PAYLOAD,2022-04-06 14:00:01,15.08811122,0.0002303,53.2175,162.5802,34.1632,2.087,0.0029646,0.00047173,0.0,0 STARLINK-3126,1 49444U 21104AN  22096.58334491  .00047173  00000-0  29646-2 0  9990,2 49444  53.2175 162.5802 0002303  34.1632   2.0870 15.08811122  3606,6917.969,95.439,541.427,538.24,0.0
49444.0,STARLINK-3126,PAYLOAD,2022-04-06 22:00:00,15.08850074,0.0002154,53.2175,161.0822,35.0294,12.8073,-0.00071197,-0.00011605,0.0,0 STARLINK-3126,1 49444U 21104AN  22096.91667824 -.00011605  00000-0 -71197-3 0  9998,2 49444  53.2175 161.0822 0002154  35.0294  12.8073 15.08850074  3579,6917.85,95.437,541.205,538.224,0.0
49444.0,STARLINK-3126,PAYLOAD,2022-04-07 14:00:01,15.08819489,0.0002328,53.2178,158.0911,31.7144,39.3261,0.0023643,0.0003752,0.0,0 STARLINK-3126,1 49444U 21104AN  22097.58334491  .00037520  00000-0  23643-2 0  9997,2 49444  53.2178 158.0911 0002328  31.7144  39.3261 15.08819489  3609,6917.943,95.439,541.419,538.198,0.0
49444.0,STARLINK-3126,PAYLOAD,2022-04-07 20:00:01,15.08865168,0.0002235,53.2177,156.9677,31.4056,318.3243,-0.0039405,-0.00062503,0.0,0 STARLINK-3126,1 49444U 21104AN  22097.83334491 -.00062503  00000-0 -39405-2 0  9999,2 49444  53.2177 156.9677 0002235  31.4056 318.3243 15.08865168 23821,6917.803000000001,95.436,541.215,538.122,0.0
49444.0,STARLINK-3126,PAYLOAD,2022-04-07 22:00:00,15.08837563,0.0002137,53.218,156.593,32.3289,50.3133,-0.00041604,-6.903e-05,0.0,0 STARLINK-3126,1 49444U 21104AN  22097.91667824 -.00006903  00000-0 -41604-3 0  9994,2 49444  53.2180 156.5930 0002137  32.3289  50.3133 15.08837563  3571,6917.888000000001,95.438,541.231,538.274,0.0
49444.0,STARLINK-3126,PAYLOAD,2022-04-08 06:00:00,15.08854725,0.000217,53.2182,155.0969,34.0264,60.1993,-0.00030018,-5.065e-05,0.0,0 STARLINK-3126,1 49444U 21104AN  22098.25001157 -.00005065  00000-0 -30018-3 0  9998,2 49444  53.2182 155.0969 0002170  34.0264  60.1993 15.08854725 23897,6917.835,95.437,541.202,538.1990000000002,0.0
49444.0,STARLINK-3126,PAYLOAD,2022-04-08 14:00:03,15.08831168,0.0002359,53.2183,153.602,29.9756,75.9844,0.0027318,0.00043447,0.0,0 STARLINK-3126,1 49444U 21104AN  22098.58336806  .00043447  00000-0  27318-2 0  9998,2 49444  53.2183 153.6020 0002359  29.9756  75.9844 15.08831168  3600,6917.906999999997,95.438,541.404,538.14,0.0
49444.0,STARLINK-3126,PAYLOAD,2022-04-08 22:00:00,15.08838686,0.0002119,53.2185,152.1041,30.7697,86.6773,0.00012671,1.729e-05,0.0,0 STARLINK-3126,1 49444U 21104AN  22098.91667824  .00001729  00000-0  12671-3 0  9996,2 49444  53.2185 152.1041 0002119  30.7697  86.6773 15.08838686  3575,6917.884,95.438,541.215,538.284,0.0
49444.0,STARLINK-3126,PAYLOAD,2022-04-09 14:00:01,15.08794618,0.0002303,53.2186,149.1132,26.2802,114.3448,0.0034173,0.00054452,0.0,0 STARLINK-3126,1 49444U 21104AN  22099.58334491  .00054452  00000-0  34173-2 0  9992,2 49444  53.2186 149.1132 0002303  26.2802 114.3448 15.08794618  3604,6918.019,95.44,541.477,538.2909999999998,0.0
49444.0,STARLINK-3126,PAYLOAD,2022-04-09 16:00:00,15.08823013,0.0002287,53.2183,148.7388,26.6426,206.8704,0.0012040999999999,0.00018919,0.0,0 STARLINK-3126,1 49444U 21104AN  22099.66667824  .00018919  00000-0  12041-2 0  9998,2 49444  53.2183 148.7388 0002287  26.6426 206.8704 15.08823013 24108,6917.932,95.439,541.379,538.215,0.0
49444.0,STARLINK-3126,PAYLOAD,2022-04-09 22:00:00,15.08821502,0.0002087,53.2186,147.6152,28.8783,123.3256,0.0017551,0.00027741,0.0,0 STARLINK-3126,1 49444U 21104AN  22099.91667824  .00027741  00000-0  17551-2 0  9990,2 49444  53.2186 147.6152 0002087  28.8783 123.3256 15.08821502  3604,6917.937,95.439,541.246,538.3580000000002,0.0
49444.0,STARLINK-3126,PAYLOAD,2022-04-10 14:00:01,15.08804949,0.0002279,53.2186,144.6245,24.8932,150.4994,0.0027563,0.0004381,0.0,0 STARLINK-3126,1 49444U 21104AN  22100.58334491  .00043810  00000-0  27563-2 0  9996,2 49444  53.2186 144.6245 0002279  24.8932 150.4994 15.08804949 24248,6917.988,95.44,541.429,538.276,0.0
49444.0,STARLINK-3126,PAYLOAD,2022-04-10 22:00:00,15.0882291,0.0002054,53.2185,143.1265,27.6996,159.2834,0.0023452,0.00037216,0.0,0 STARLINK-3126,1 49444U 21104AN  22100.91667824  .00037216  00000-0  23452-2 0  9998,2 49444  53.2185 143.1265 0002054  27.6996 159.2834 15.08822910  3600,6917.933000000001,95.439,541.219,538.377,0.0
49444.0,STARLINK-3126,PAYLOAD,2022-04-11 14:00:01,15.08838267,0.0002335,53.2182,140.1358,28.228,181.93400000000003,0.00012546,1.709e-05,0.0,0 STARLINK-3126,1 49444U 21104AN  22101.58334491  .00001709  00000-0  12546-3 0  9994,2 49444  53.2182 140.1358 0002335  28.2280 181.9340 15.08838267 24397,6917.886,95.438,541.366,538.135,0.0
49444.0,STARLINK-3126,PAYLOAD,2022-04-11 22:00:00,15.08804512,0.0002191,53.2181,138.6377,33.4044,188.3631,0.00028675,4.274e-05,0.0,0 STARLINK-3126,1 49444U 21104AN  22101.91667824  .00004274  00000-0  28675-3 0  9990,2 49444  53.2181 138.6377 0002191  33.4044 188.3631 15.08804512  3594,6917.989000000001,95.44,541.37,538.3380000000002,0.0
49444.0,STARLINK-3126,PAYLOAD,2022-04-12 06:00:02,15.08820813,0.0002296,53.2181,137.1424,35.7622,197.6168,-0.0014443,-0.0002319,0.0,0 STARLINK-3126,1 49444U 21104AN  22102.25002315 -.00023190  00000-0 -14443-2 0  9993,2 49444  53.2181 137.1424 0002296  35.7622 197.6168 15.08820813 24496,6917.939,95.439,541.3919999999998,538.216,0.0
49444.0,STARLINK-3126,PAYLOAD,2022-04-12 14:00:01,15.0879465,0.0002456,53.2177,135.6472,32.6251,212.2505,0.0021044,0.00033321,0.0,0 STARLINK-3126,1 49444U 21104AN  22102.58334491  .00033321  00000-0  21044-2 0  9992,2 49444  53.2177 135.6472 0002456  32.6251 212.2505 15.08794650  3618,6918.019,95.44,541.5830000000002,538.185,0.0
49444.0,STARLINK-3126,PAYLOAD,2022-04-12 22:00:00,15.08820019,0.0002214,53.2177,134.149,33.543,222.9189,0.0024585,0.00039035,0.0,0 STARLINK-3126,1 49444U 21104AN  22102.91667824  .00039035  00000-0  24585-2 0  9999,2 49444  53.2177 134.1490 0002214  33.5430 222.9189 15.08820019 24598,6917.941,95.439,541.3380000000002,538.275,0.0
49444.0,STARLINK-3126,PAYLOAD,2022-04-13 14:00:03,15.08843304,0.000248,53.2173,131.1579,31.5134,248.2704,0.0016480999999999,0.00026042,0.0,0 STARLINK-3126,1 49444U 21104AN  22103.58336806  .00026042  00000-0  16481-2 0  9996,2 49444  53.2173 131.1579 0002480  31.5134 248.2704 15.08843304 24690,6917.87,95.437,541.451,538.02,0.0
49444.0,STARLINK-3126,PAYLOAD,2022-04-13 22:00:00,15.08834602,0.0002312,53.2174,129.6598,35.0047,256.2722,0.0030155,0.00048025,0.0,0 STARLINK-3126,1 49444U 21104AN  22103.91667824  .00048025  00000-0  30155-2 0  9999,2 49444  53.2174 129.6598 0002312  35.0047 256.2722 15.08834602  3619,6917.897,95.438,541.361,538.1619999999998,0.0
49444.0,STARLINK-3126,PAYLOAD,2022-04-14 06:00:00,15.08883964,0.0002422,53.2174,128.1644,34.2692,268.6088,-0.004563,-0.00072271,0.0,0 STARLINK-3126,1 49444U 21104AN  22104.25001157 -.00072271  00000-0 -45630-2 0  9994,2 49444  53.2174 128.1644 0002422  34.2692 268.6088 15.08883964 24793,6917.746,95.435,541.286,537.936,0.0
49444.0,STARLINK-3126,PAYLOAD,2022-04-14 14:00:01,15.0883188,0.0002528,53.2172,126.6686,30.4796,284.0149,0.00087413,0.00013648,0.0,0 STARLINK-3126,1 49444U 21104AN  22104.58334491  .00013648  00000-0  87413-3 0  9997,2 49444  53.2172 126.6686 0002528  30.4796 284.0149 15.08831880  3595,6917.905,95.438,541.519,538.021,0.0
49444.0,STARLINK-3126,PAYLOAD,2022-04-14 22:00:00,15.088169199999998,0.0002358,53.2174,125.1704,34.5271,291.5706,0.003125,0.00049767,0.0,0 STARLINK-3126,1 49444U 21104AN  22104.91667824  .00049767  00000-0  31250-2 0  9991,2 49444  53.2174 125.1704 0002358  34.5271 291.5706 15.08816920 24892,6917.951,95.439,541.447,538.185,0.0
49444.0,STARLINK-3126,PAYLOAD,2022-04-15 14:00:01,15.08873203,0.00026,53.2174,122.1791,31.7336,317.5748,-0.00091545,-0.00014842,0.0,0 STARLINK-3126,1 49444U 21104AN  22105.58334491 -.00014842  00000-0 -91545-3 0  9998,2 49444  53.2174 122.1791 0002600  31.7336 317.5748 15.08873203 24999,6917.779,95.435,541.443,537.845,0.0
